[{"OBJECT_NAME":"STARLINK-34753","OBJECT_ID":"2025-158Q","EPOCH":"2026-03-09T12:46:56.989056","MEAN_MOTION":15.05632043,"ECCENTRICITY":0.00024659,"INCLINATION":97.6014,"RA_OF_ASC_NODE":293.9507,"ARG_OF_PERICENTER":87.4876,"MEAN_ANOMALY":272.6633,"EPHEMERIS_TYPE":0,"CLASSIFICATION_TYPE":"U","NORAD_CAT_ID":64946,"ELEMENT_SET_NO":999,"REV_AT_EPOCH":3533,"BSTAR":0.00036344434,"MEAN_MOTION_DOT":5.185e-5,"MEAN_MOTION_DDOT":0},{"OBJECT_NAME":"COSMOS 2251 DEB","OBJECT_ID":"1993-036SS","EPOCH":"2026-03-09T22:59:54.978144","MEAN_MOTION":15.02003149,"ECCENTRICITY":0.00206055,"INCLINATION":74.0288,"RA_OF_ASC_NODE":253.6967,"ARG_OF_PERICENTER":277.4018,"MEAN_ANOMALY":234.4946,"EPHEMERIS_TYPE":0,"CLASSIFICATION_TYPE":"U","NORAD_CAT_ID":34449,"ELEMENT_SET_NO":999,"REV_AT_EPOCH":89999,"BSTAR":0.0029470254,"MEAN_MOTION_DOT":0.00038984,"MEAN_MOTION_DDOT":0}]
